{
  "norad_id": 41588,
  "name": "ABS-2A (MONGOLSAT-1)",
  "history": [
    {
      "epoch": "2026-03-28T11:43:08.474592Z",
      "apogee_km": 35796.13531259309,
      "perigee_km": 35778.28250513528,
      "latitude_deg": -0.030845068039033047,
      "longitude_deg": 74.74344671822112,
      "height_km": 35792.821368831836,
      "semi_major_axis_km": 42165.34590886419,
      "eccentricity": 0.0002117,
      "inclination_deg": 0.0103,
      "raan_deg": 190.6056,
      "arg_perigee_deg": 112.2306,
      "mean_anomaly_deg": 133.5595,
      "mean_motion_rev_day": 1.00269595
    },
    {
      "epoch": "2026-03-29T03:07:14.318112Z",
      "apogee_km": 35796.12358463847,
      "perigee_km": 35778.683916983944,
      "latitude_deg": 0.02093232794482899,
      "longitude_deg": 74.73113817859313,
      "height_km": 35778.19551173505,
      "semi_major_axis_km": 42165.54075081121,
      "eccentricity": 0.0002068,
      "inclination_deg": 0.0094,
      "raan_deg": 159.6724,
      "arg_perigee_deg": 145.7753,
      "mean_anomaly_deg": 2.6093,
      "mean_motion_rev_day": 1.002689
    },
    {
      "epoch": "2026-03-30T01:22:07.680576Z",
      "apogee_km": 35795.78788481698,
      "perigee_km": 35778.61815836019,
      "latitude_deg": 0.03586475424814037,
      "longitude_deg": 74.712833616542,
      "height_km": 35778.99687194495,
      "semi_major_axis_km": 42165.340021588585,
      "eccentricity": 0.0002036,
      "inclination_deg": 0.011,
      "raan_deg": 200.5338,
      "arg_perigee_deg": 108.0827,
      "mean_anomaly_deg": 334.0707,
      "mean_motion_rev_day": 1.00269616
    },
    {
      "epoch": "2026-03-30T01:22:07.682304Z",
      "apogee_km": 35795.78577654997,
      "perigee_km": 35778.620266627186,
      "latitude_deg": 0.035864754325632374,
      "longitude_deg": 74.7128289209335,
      "height_km": 35778.99876084113,
      "semi_major_axis_km": 42165.340021588585,
      "eccentricity": 0.00020355,
      "inclination_deg": 0.011,
      "raan_deg": 200.5338,
      "arg_perigee_deg": 108.0827,
      "mean_anomaly_deg": 334.0707,
      "mean_motion_rev_day": 1.00269616
    },
    {
      "epoch": "2026-03-31T20:09:08.120448Z",
      "apogee_km": 35795.17620076984,
      "perigee_km": 35779.01005153947,
      "latitude_deg": 0.0036865977378620295,
      "longitude_deg": 74.70194864987491,
      "height_km": 35789.34262408099,
      "semi_major_axis_km": 42165.23012615466,
      "eccentricity": 0.0001917,
      "inclination_deg": 0.0124,
      "raan_deg": 205.7822,
      "arg_perigee_deg": 110.1266,
      "mean_anomaly_deg": 250.2913,
      "mean_motion_rev_day": 1.00270008
    },
    {
      "epoch": "2026-04-01T19:43:38.690112Z",
      "apogee_km": 35794.86385157021,
      "perigee_km": 35778.242530696865,
      "latitude_deg": -0.006368559208599094,
      "longitude_deg": 74.71032983307764,
      "height_km": 35790.57250183536,
      "semi_major_axis_km": 42164.69019113354,
      "eccentricity": 0.0001971,
      "inclination_deg": 0.0106,
      "raan_deg": 220.0775,
      "arg_perigee_deg": 103.4587,
      "mean_anomaly_deg": 237.2692,
      "mean_motion_rev_day": 1.00271934
    },
    {
      "epoch": "2026-04-02T20:04:11.193024Z",
      "apogee_km": 35794.471359546886,
      "perigee_km": 35779.58705587556,
      "latitude_deg": -0.0010567961496162734,
      "longitude_deg": 74.70363152682613,
      "height_km": 35789.868652015626,
      "semi_major_axis_km": 42165.16620771123,
      "eccentricity": 0.0001765,
      "inclination_deg": 0.0129,
      "raan_deg": 211.4514,
      "arg_perigee_deg": 111.9566,
      "mean_anomaly_deg": 243.528,
      "mean_motion_rev_day": 1.00270236
    },
    {
      "epoch": "2026-04-02T21:52:21.510912Z",
      "apogee_km": 35794.414040427066,
      "perigee_km": 35779.624190268056,
      "latitude_deg": 0.017453495614683914,
      "longitude_deg": 74.7011447874871,
      "height_km": 35786.49073423293,
      "semi_major_axis_km": 42165.15611534756,
      "eccentricity": 0.00017538,
      "inclination_deg": 0.0131,
      "raan_deg": 210.4532,
      "arg_perigee_deg": 113.1768,
      "mean_anomaly_deg": 270.4228,
      "mean_motion_rev_day": 1.00270272
    },
    {
      "epoch": "2026-04-03T20:01:43.282272Z",
      "apogee_km": 35794.146168659485,
      "perigee_km": 35778.10688281429,
      "latitude_deg": -0.008387677828836409,
      "longitude_deg": 74.70713048219365,
      "height_km": 35789.39883908924,
      "semi_major_axis_km": 42164.26352573689,
      "eccentricity": 0.0001902,
      "inclination_deg": 0.0098,
      "raan_deg": 231.6458,
      "arg_perigee_deg": 93.5296,
      "mean_anomaly_deg": 242.1355,
      "mean_motion_rev_day": 1.00273456
    },
    {
      "epoch": "2026-04-04T05:33:38.759040Z",
      "apogee_km": 35794.05913946474,
      "perigee_km": 35779.76603095634,
      "latitude_deg": 0.026669599729909708,
      "longitude_deg": 74.73047414712093,
      "height_km": 35779.91693800992,
      "semi_major_axis_km": 42165.049585210545,
      "eccentricity": 0.00016949,
      "inclination_deg": 0.0106,
      "raan_deg": 228.9137,
      "arg_perigee_deg": 96.7146,
      "mean_anomaly_deg": 25.0521,
      "mean_motion_rev_day": 1.00270652
    },
    {
      "epoch": "2026-04-05T13:16:15.591072Z",
      "apogee_km": 35793.88684940664,
      "perigee_km": 35780.02971249351,
      "latitude_deg": -0.029750258182713644,
      "longitude_deg": 74.72570742857393,
      "height_km": 35791.92034992613,
      "semi_major_axis_km": 42165.095280950074,
      "eccentricity": 0.00016432,
      "inclination_deg": 0.0086,
      "raan_deg": 219.5322,
      "arg_perigee_deg": 105.6429,
      "mean_anomaly_deg": 142.4552,
      "mean_motion_rev_day": 1.00270489
    },
    {
      "epoch": "2026-04-05T20:48:38.808576Z",
      "apogee_km": 35793.75205591169,
      "perigee_km": 35779.83762840377,
      "latitude_deg": -0.005237758826035862,
      "longitude_deg": 74.70526831739987,
      "height_km": 35788.2353431679,
      "semi_major_axis_km": 42164.93184215773,
      "eccentricity": 0.000165,
      "inclination_deg": 0.0078,
      "raan_deg": 244.7179,
      "arg_perigee_deg": 82.3523,
      "mean_anomaly_deg": 253.9761,
      "mean_motion_rev_day": 1.00271072
    },
    {
      "epoch": "2026-04-06T02:47:26.013984Z",
      "apogee_km": 35793.693891658666,
      "perigee_km": 35780.20865312738,
      "latitude_deg": 0.028748243677096816,
      "longitude_deg": 74.71664886620484,
      "height_km": 35779.95939678652,
      "semi_major_axis_km": 42165.088272393026,
      "eccentricity": 0.00015991,
      "inclination_deg": 0.0088,
      "raan_deg": 240.5308,
      "arg_perigee_deg": 86.0576,
      "mean_anomaly_deg": 344.3987,
      "mean_motion_rev_day": 1.00270514
    },
    {
      "epoch": "2026-04-07T11:18:29.780064Z",
      "apogee_km": 35793.723486406794,
      "perigee_km": 35780.11682246306,
      "latitude_deg": -0.02741209163423555,
      "longitude_deg": 74.7334778814795,
      "height_km": 35789.1119654593,
      "semi_major_axis_km": 42165.05715443493,
      "eccentricity": 0.00016135,
      "inclination_deg": 0.0147,
      "raan_deg": 197.7701,
      "arg_perigee_deg": 128.6991,
      "mean_anomaly_deg": 113.615,
      "mean_motion_rev_day": 1.00270625
    },
    {
      "epoch": "2026-04-08T01:17:21.653376Z",
      "apogee_km": 35793.568353100505,
      "perigee_km": 35780.355497701246,
      "latitude_deg": 0.022990973907520303,
      "longitude_deg": 74.7134395359098,
      "height_km": 35781.2884176109,
      "semi_major_axis_km": 42165.09892540088,
      "eccentricity": 0.00015668,
      "inclination_deg": 0.0065,
      "raan_deg": 185.924,
      "arg_perigee_deg": 142.7921,
      "mean_anomaly_deg": 321.6668,
      "mean_motion_rev_day": 1.00270476
    },
    {
      "epoch": "2026-04-09T20:20:38.702688Z",
      "apogee_km": 35793.58394792872,
      "perigee_km": 35780.23449429512,
      "latitude_deg": -0.004706245059596798,
      "longitude_deg": 74.71218590460587,
      "height_km": 35789.06301130967,
      "semi_major_axis_km": 42165.046221111916,
      "eccentricity": 0.0001583,
      "inclination_deg": 0.0034,
      "raan_deg": 264.4128,
      "arg_perigee_deg": 66.852,
      "mean_anomaly_deg": 246.7124,
      "mean_motion_rev_day": 1.00270664
    },
    {
      "epoch": "2026-04-10T11:10:57.239328Z",
      "apogee_km": 35793.625984447346,
      "perigee_km": 35780.29338087629,
      "latitude_deg": -0.01814561403877218,
      "longitude_deg": 74.74314679579625,
      "height_km": 35788.833860882354,
      "semi_major_axis_km": 42165.096682661824,
      "eccentricity": 0.0001581,
      "inclination_deg": 0.0051,
      "raan_deg": 170.9086,
      "arg_perigee_deg": 159.1002,
      "mean_anomaly_deg": 111.1529,
      "mean_motion_rev_day": 1.00270484
    },
    {
      "epoch": "2026-04-11T09:25:37.615872Z",
      "apogee_km": 35793.94331382222,
      "perigee_km": 35780.88885858674,
      "latitude_deg": -0.019424500990629597,
      "longitude_deg": 74.74150606008672,
      "height_km": 35786.24468979269,
      "semi_major_axis_km": 42165.55308620448,
      "eccentricity": 0.0001548,
      "inclination_deg": 0.0193,
      "raan_deg": 203.8687,
      "arg_perigee_deg": 127.4925,
      "mean_anomaly_deg": 84.3809,
      "mean_motion_rev_day": 1.00268856
    },
    {
      "epoch": "2026-04-13T04:40:38.850240Z",
      "apogee_km": 35793.95541402687,
      "perigee_km": 35781.31074289574,
      "latitude_deg": 0.029211218460295774,
      "longitude_deg": 74.72297598520166,
      "height_km": 35781.029714508564,
      "semi_major_axis_km": 42165.770078461304,
      "eccentricity": 0.00014994,
      "inclination_deg": 0.0218,
      "raan_deg": 206.7039,
      "arg_perigee_deg": 123.771,
      "mean_anomaly_deg": 15.7961,
      "mean_motion_rev_day": 1.00268082
    }
  ]
}